TIANMU-1 07             
1 57399U 23101A   26065.57454230  .00008352  00000+0  29795-3 0  9991
2 57399  97.2728 118.5929 0004609 142.4105 217.7458 15.29118809145964
STARLINK-34193          
1 64011U 25101T   26068.17524873  .00029014  00000+0  10599-2 0  9991
2 64011  43.0022   1.1202 0001681 295.0137  65.0540 15.27573864 46978
